{
  "type": "FeatureCollection",
  "features": [
    {
      "type": "Feature",
      "properties": {
        "norad_id": 37781,
        "name": "HAIYANG-2A",
        "group": "resource",
        "lat": 19.778549305789127,
        "lon": 163.34743966595823,
        "alt_km": 967.4756497739309,
        "timestamp": "2025-12-04T21:36:15.531134+00:00",
        "meta_object_name": "HAIYANG-2A",
        "meta_object_id": "2011-043A",
        "meta_epoch": "2025-12-04T15:36:26.028000",
        "meta_mean_motion": 13.78834357,
        "meta_eccentricity": 0.00016477,
        "meta_inclination": 99.3377,
        "meta_ra_of_asc_node": 339.7095,
        "meta_arg_of_pericenter": 95.5012,
        "meta_mean_anomaly": 264.6327,
        "meta_ephemeris_type": 0,
        "meta_classification_type": "U",
        "meta_norad_cat_id": 37781,
        "meta_element_set_no": 999,
        "meta_rev_at_epoch": 71987,
        "meta_bstar": 5.9433851e-05,
        "meta_mean_motion_dot": 1.6e-07,
        "meta_mean_motion_ddot": 0,
        "tle_line1": "1 37781U 11043A   25338.65030125  .00000016  00000+0  59434-4 0  9993",
        "tle_line2": "2 37781  99.3377 339.7095 0001647  95.5012 264.6327 13.78834357719873"
      },
      "geometry": {
        "type": "Point",
        "coordinates": [
          163.34743966595823,
          19.778549305789127
        ]
      }
    },
    {
      "type": "Feature",
      "properties": {
        "norad_id": 37791,
        "name": "RASAT",
        "group": "resource",
        "lat": -71.34685120334694,
        "lon": 93.11325766021533,
        "alt_km": 689.7782792302005,
        "timestamp": "2025-12-04T21:36:15.531144+00:00",
        "meta_object_name": "RASAT",
        "meta_object_id": "2011-044D",
        "meta_epoch": "2025-12-04T14:16:16.215168",
        "meta_mean_motion": 14.67891935,
        "meta_eccentricity": 0.00219558,
        "meta_inclination": 98.0656,
        "meta_ra_of_asc_node": 67.9733,
        "meta_arg_of_pericenter": 89.5522,
        "meta_mean_anomaly": 23.767,
        "meta_ephemeris_type": 0,
        "meta_classification_type": "U",
        "meta_norad_cat_id": 37791,
        "meta_element_set_no": 999,
        "meta_rev_at_epoch": 76463,
        "meta_bstar": 0.00023079529,
        "meta_mean_motion_dot": 1.275e-05,
        "meta_mean_motion_ddot": 0,
        "tle_line1": "1 37791U 11044D   25338.59463212  .00001275  00000+0  23080-3 0  9990",
        "tle_line2": "2 37791  98.0656  67.9733 0021955  89.5522  23.7670 14.67891935764635"
      },
      "geometry": {
        "type": "Point",
        "coordinates": [
          93.11325766021533,
          -71.34685120334694
        ]
      }
    },
    {
      "type": "Feature",
      "properties": {
        "norad_id": 37841,
        "name": "SRMSAT",
        "group": "resource",
        "lat": 18.461234519690652,
        "lon": -91.42485244979325,
        "alt_km": 852.734386100662,
        "timestamp": "2025-12-04T21:36:15.531155+00:00",
        "meta_object_name": "SRMSAT",
        "meta_object_id": "2011-058D",
        "meta_epoch": "2025-12-04T16:21:06.386688",
        "meta_mean_motion": 14.11507205,
        "meta_eccentricity": 0.00117168,
        "meta_inclination": 19.9698,
        "meta_ra_of_asc_node": 156.7245,
        "meta_arg_of_pericenter": 224.0627,
        "meta_mean_anomaly": 213.4569,
        "meta_ephemeris_type": 0,
        "meta_classification_type": "U",
        "meta_norad_cat_id": 37841,
        "meta_element_set_no": 999,
        "meta_rev_at_epoch": 73030,
        "meta_bstar": 0.00015376395,
        "meta_mean_motion_dot": 5.48e-06,
        "meta_mean_motion_ddot": 0,
        "tle_line1": "1 37841U 11058D   25338.68132392  .00000548  00000+0  15376-3 0  9994",
        "tle_line2": "2 37841  19.9698 156.7245 0011716 224.0627 213.4569 14.11507205730305"
      },
      "geometry": {
        "type": "Point",
        "coordinates": [
          -91.42485244979325,
          18.461234519690652
        ]
      }
    },
    {
      "type": "Feature",
      "properties": {
        "norad_id": 38012,
        "name": "PLEIADES 1A",
        "group": "resource",
        "lat": -14.549832421729256,
        "lon": 53.92987459848562,
        "alt_km": 702.6033578169036,
        "timestamp": "2025-12-04T21:36:15.531165+00:00",
        "meta_object_name": "PLEIADES 1A",
        "meta_object_id": "2011-076F",
        "meta_epoch": "2025-12-04T15:49:49.680192",
        "meta_mean_motion": 14.58549621,
        "meta_eccentricity": 0.00013937,
        "meta_inclination": 98.1833,
        "meta_ra_of_asc_node": 51.5526,
        "meta_arg_of_pericenter": 80.6202,
        "meta_mean_anomaly": 82.3438,
        "meta_ephemeris_type": 0,
        "meta_classification_type": "U",
        "meta_norad_cat_id": 38012,
        "meta_element_set_no": 999,
        "meta_rev_at_epoch": 74363,
        "meta_bstar": 0.00019893026,
        "meta_mean_motion_dot": 8.79e-06,
        "meta_mean_motion_ddot": 0,
        "tle_line1": "1 38012U 11076F   25338.65960278  .00000879  00000+0  19893-3 0  9999",
        "tle_line2": "2 38012  98.1833  51.5526 0001393  80.6202  82.3438 14.58549621743632"
      },
      "geometry": {
        "type": "Point",
        "coordinates": [
          53.92987459848562,
          -14.549832421729256
        ]
      }
    },
    {
      "type": "Feature",
      "properties": {
        "norad_id": 38038,
        "name": "ZIYUAN 1-02C (ZY 1-02C)",
        "group": "resource",
        "lat": 66.30096325711938,
        "lon": -115.18495163349895,
        "alt_km": 755.3597064768664,
        "timestamp": "2025-12-04T21:36:15.531176+00:00",
        "meta_object_name": "ZIYUAN 1-02C (ZY 1-02C)",
        "meta_object_id": "2011-079A",
        "meta_epoch": "2025-12-04T16:46:50.466144",
        "meta_mean_motion": 14.37998619,
        "meta_eccentricity": 0.00068388,
        "meta_inclination": 98.4345,
        "meta_ra_of_asc_node": 44.8608,
        "meta_arg_of_pericenter": 160.7339,
        "meta_mean_anomaly": 351.6553,
        "meta_ephemeris_type": 0,
        "meta_classification_type": "U",
        "meta_norad_cat_id": 38038,
        "meta_element_set_no": 999,
        "meta_rev_at_epoch": 73125,
        "meta_bstar": 0.00035270752,
        "meta_mean_motion_dot": 1.024e-05,
        "meta_mean_motion_ddot": 0,
        "tle_line1": "1 38038U 11079A   25338.69919521  .00001024  00000+0  35271-3 0  9990",
        "tle_line2": "2 38038  98.4345  44.8608 0006838 160.7339 351.6553 14.37998619731254"
      },
      "geometry": {
        "type": "Point",
        "coordinates": [
          -115.18495163349895,
          66.30096325711938
        ]
      }
    },
    {
      "type": "Feature",
      "properties": {
        "norad_id": 38046,
        "name": "ZIYUAN 3-1 (ZY 3-1)",
        "group": "resource",
        "lat": -29.938800767093298,
        "lon": -139.01904819904487,
        "alt_km": 374.718265000467,
        "timestamp": "2025-12-04T21:36:15.531186+00:00",
        "meta_object_name": "ZIYUAN 3-1 (ZY 3-1)",
        "meta_object_id": "2012-001A",
        "meta_epoch": "2025-12-04T16:06:46.635840",
        "meta_mean_motion": 15.67058623,
        "meta_eccentricity": 0.0002165,
        "meta_inclination": 97.1774,
        "meta_ra_of_asc_node": 44.9093,
        "meta_arg_of_pericenter": 26.248,
        "meta_mean_anomaly": 333.8891,
        "meta_ephemeris_type": 0,
        "meta_classification_type": "U",
        "meta_norad_cat_id": 38046,
        "meta_element_set_no": 999,
        "meta_rev_at_epoch": 77370,
        "meta_bstar": 0.0010794197,
        "meta_mean_motion_dot": 0.00116185,
        "meta_mean_motion_ddot": 0,
        "tle_line1": "1 38046U 12001A   25338.67137310  .00116185  00000+0  10794-2 0  9998",
        "tle_line2": "2 38046  97.1774  44.9093 0002165  26.2480 333.8891 15.67058623773705"
      },
      "geometry": {
        "type": "Point",
        "coordinates": [
          -139.01904819904487,
          -29.938800767093298
        ]
      }
    },
    {
      "type": "Feature",
      "properties": {
        "norad_id": 38338,
        "name": "ARIRANG-3 (KOMPSAT-3)",
        "group": "resource",
        "lat": 25.571309821625714,
        "lon": 117.45178591478017,
        "alt_km": 690.5214985592193,
        "timestamp": "2025-12-04T21:36:15.531196+00:00",
        "meta_object_name": "ARIRANG-3 (KOMPSAT-3)",
        "meta_object_id": "2012-025B",
        "meta_epoch": "2025-12-04T14:19:49.776096",
        "meta_mean_motion": 14.61695812,
        "meta_eccentricity": 0.00059379,
        "meta_inclination": 98.331,
        "meta_ra_of_asc_node": 293.1258,
        "meta_arg_of_pericenter": 4.6369,
        "meta_mean_anomaly": 355.4886,
        "meta_ephemeris_type": 0,
        "meta_classification_type": "U",
        "meta_norad_cat_id": 38338,
        "meta_element_set_no": 999,
        "meta_rev_at_epoch": 72291,
        "meta_bstar": 0.00024546875,
        "meta_mean_motion_dot": 1.174e-05,
        "meta_mean_motion_ddot": 0,
        "tle_line1": "1 38338U 12025B   25338.59710389  .00001174  00000+0  24547-3 0  9995",
        "tle_line2": "2 38338  98.3310 293.1258 0005937   4.6369 355.4886 14.61695812722916"
      },
      "geometry": {
        "type": "Point",
        "coordinates": [
          117.45178591478017,
          25.571309821625714
        ]
      }
    }
  ]
}